start=new Date('2023-03-05T00:00:00.000Z').valueOf();
sats=[{"MEAN_ELEMENT_THEORY":"SGP4","INCLINATION":"53.2153","CLASSIFICATION_TYPE":"U","REV_AT_EPOCH":"6399","TLE_LINE2":"2 50834  53.2153  83.3245 0001466  92.0032 268.1128 15.08862381 63996","COUNTRY_CODE":"US","GP_ID":"227477099","EPOCH":"2023-03-04T07:52:30.468288","ECCENTRICITY":"0.00014660","SITE":"AFETR","OBJECT_NAME":"STARLINK-3331","LAUNCH_DATE":"2022-01-06","APOAPSIS":"540.691","ARG_OF_PERICENTER":"92.0032","RCS_SIZE":"LARGE","FILE":"3851072","MEAN_MOTION":"15.08862381","RA_OF_ASC_NODE":"83.3245","DECAY_DATE":null,"PERIOD":"95.436","EPHEMERIS_TYPE":"0","MEAN_ANOMALY":"268.1128","MEAN_MOTION_DOT":"0.00027864","NORAD_CAT_ID":"50834","PERIAPSIS":"538.663","TLE_LINE1":"1 50834U 22001AH  23063.32813042  .00027864  00000-0  17608-2 0  9993","MEAN_MOTION_DDOT":"0.0000000000000","OBJECT_ID":"2022-001AH","BSTAR":"0.00176080000000","ELEMENT_SET_NO":"999","CENTER_NAME":"EARTH","SEMIMAJOR_AXIS":"6917.812","REF_FRAME":"TEME","OBJECT_TYPE":"PAYLOAD","TIME_SYSTEM":"UTC"},{"MEAN_MOTION_DOT":"-0.00099546","PERIAPSIS":"540.856","TLE_LINE1":"1 50835U 22001AJ  23063.78470464 -.00099546  00000-0 -64292-2 0  9990","NORAD_CAT_ID":"50835","MEAN_ANOMALY":"299.6064","DECAY_DATE":null,"EPHEMERIS_TYPE":"0","PERIOD":"95.476","REF_FRAME":"TEME","SEMIMAJOR_AXIS":"6919.720","CENTER_NAME":"EARTH","TIME_SYSTEM":"UTC","OBJECT_TYPE":"PAYLOAD","OBJECT_ID":"2022-001AJ","MEAN_MOTION_DDOT":"0.0000000000000","ELEMENT_SET_NO":"999","BSTAR":"-0.00642920000000","SITE":"AFETR","ECCENTRICITY":"0.00010540","EPOCH":"2023-03-04T18:49:58.480896","GP_ID":"227509129","COUNTRY_CODE":"US","OBJECT_NAME":"STARLINK-3310","MEAN_ELEMENT_THEORY":"SGP4","TLE_LINE2":"2 50835  53.2156  81.2797 0001054  60.5033 299.6064 15.08238189 64063","REV_AT_EPOCH":"6406","CLASSIFICATION_TYPE":"U","INCLINATION":"53.2156","FILE":"3851350","MEAN_MOTION":"15.08238189","RCS_SIZE":"LARGE","ARG_OF_PERICENTER":"60.5033","RA_OF_ASC_NODE":"81.2797","APOAPSIS":"542.315","LAUNCH_DATE":"2022-01-06"},{"MEAN_ANOMALY":"268.7708","PERIOD":"95.436","DECAY_DATE":null,"EPHEMERIS_TYPE":"0","TLE_LINE1":"1 50836U 22001AK  23063.53052951  .00031107  00000-0  19624-2 0  9997","PERIAPSIS":"538.545","NORAD_CAT_ID":"50836","MEAN_MOTION_DOT":"0.00031107","ELEMENT_SET_NO":"999","BSTAR":"0.00196240000000","OBJECT_ID":"2022-001AK","MEAN_MOTION_DDOT":"0.0000000000000","TIME_SYSTEM":"UTC","OBJECT_TYPE":"PAYLOAD","REF_FRAME":"TEME","CENTER_NAME":"EARTH","SEMIMAJOR_AXIS":"6917.789","CLASSIFICATION_TYPE":"U","REV_AT_EPOCH":"6392","TLE_LINE2":"2 50836  53.2145  82.4155 0001604  91.3468 268.7708 15.08869789 63920","INCLINATION":"53.2145","MEAN_ELEMENT_THEORY":"SGP4","OBJECT_NAME":"STARLINK-3330","EPOCH":"2023-03-04T12:43:57.749664","ECCENTRICITY":"0.00016040","SITE":"AFETR","COUNTRY_CODE":"US","GP_ID":"227475610","APOAPSIS":"540.764","LAUNCH_DATE":"2022-01-06","RA_OF_ASC_NODE":"82.4155","FILE":"3851072","MEAN_MOTION":"15.08869789","ARG_OF_PERICENTER":"91.3468","RCS_SIZE":"LARGE"},{"TIME_SYSTEM":"UTC","OBJECT_TYPE":"PAYLOAD","REF_FRAME":"TEME","SEMIMAJOR_AXIS":"6917.753","CENTER_NAME":"EARTH","ELEMENT_SET_NO":"999","BSTAR":"0.00116700000000","OBJECT_ID":"2022-001AL","MEAN_MOTION_DDOT":"0.0000000000000","TLE_LINE1":"1 50837U 22001AL  23063.75592183  .00018355  00000-0  11670-2 0  9991","PERIAPSIS":"538.521","NORAD_CAT_ID":"50837","MEAN_MOTION_DOT":"0.00018355","MEAN_ANOMALY":"258.9916","PERIOD":"95.435","DECAY_DATE":null,"EPHEMERIS_TYPE":"0","RA_OF_ASC_NODE":"71.4012","FILE":"3851350","MEAN_MOTION":"15.08881776","RCS_SIZE":"LARGE","ARG_OF_PERICENTER":"101.1254","APOAPSIS":"540.715","LAUNCH_DATE":"2022-01-06","OBJECT_NAME":"STARLINK-3318","ECCENTRICITY":"0.00015860","SITE":"AFETR","EPOCH":"2023-03-04T18:08:31.646112","GP_ID":"227510130","COUNTRY_CODE":"US","REV_AT_EPOCH":"6420","TLE_LINE2":"2 50837  53.2156  71.4012 0001586 101.1254 258.9916 15.08881776 64209","CLASSIFICATION_TYPE":"U","INCLINATION":"53.2156","MEAN_ELEMENT_THEORY":"SGP4"},{"OBJECT_TYPE":"PAYLOAD","TIME_SYSTEM":"UTC","CENTER_NAME":"EARTH","SEMIMAJOR_AXIS":"6902.958","REF_FRAME":"TEME","BSTAR":"0.00259370000000","ELEMENT_SET_NO":"999","MEAN_MOTION_DDOT":"0.0000000000000","OBJECT_ID":"2022-001AM","NORAD_CAT_ID":"50838","PERIAPSIS":"524.098","TLE_LINE1":"1 50838U 22001AM  23063.52061248  .00047292  00000-0  25937-2 0  9993","MEAN_MOTION_DOT":"0.00047292","EPHEMERIS_TYPE":"0","DECAY_DATE":null,"PERIOD":"95.129","MEAN_ANOMALY":"243.4035","RA_OF_ASC_NODE":"81.3187","ARG_OF_PERICENTER":"116.7066","RCS_SIZE":"LARGE","FILE":"3851072","MEAN_MOTION":"15.13735173","LAUNCH_DATE":"2022-01-06","APOAPSIS":"525.548","OBJECT_NAME":"STARLINK-3322","COUNTRY_CODE":"US","GP_ID":"227476600","EPOCH":"2023-03-04T12:29:40.918272","ECCENTRICITY":"0.00010500","SITE":"AFETR","INCLINATION":"53.2162","CLASSIFICATION_TYPE":"U","TLE_LINE2":"2 50838  53.2162  81.3187 0001050 116.7066 243.4035 15.13735173 64047","REV_AT_EPOCH":"6404","MEAN_ELEMENT_THEORY":"SGP4"},{"MEAN_MOTION_DOT":"0.00036953","NORAD_CAT_ID":"50839","PERIAPSIS":"538.720","TLE_LINE1":"1 50839U 22001AN  23063.44220805  .00036953  00000-0  23253-2 0  9992","PERIOD":"95.435","DECAY_DATE":null,"EPHEMERIS_TYPE":"0","MEAN_ANOMALY":"260.7064","CENTER_NAME":"EARTH","SEMIMAJOR_AXIS":"6917.762","REF_FRAME":"TEME","OBJECT_TYPE":"PAYLOAD","TIME_SYSTEM":"UTC","MEAN_MOTION_DDOT":"0.0000000000000","OBJECT_ID":"2022-001AN","BSTAR":"0.00232530000000","ELEMENT_SET_NO":"999","COUNTRY_CODE":"US","GP_ID":"227475860","EPOCH":"2023-03-04T10:36:46.775520","ECCENTRICITY":"0.00013120","SITE":"AFETR","OBJECT_NAME":"STARLINK-3320","MEAN_ELEMENT_THEORY":"SGP4","INCLINATION":"53.2136","CLASSIFICATION_TYPE":"U","REV_AT_EPOCH":"6400","TLE_LINE2":"2 50839  53.2136  82.8121 0001312  99.4077 260.7064 15.08878679 64006","ARG_OF_PERICENTER":"99.4077","RCS_SIZE":"LARGE","FILE":"3851072","MEAN_MOTION":"15.08878679","RA_OF_ASC_NODE":"82.8121","LAUNCH_DATE":"2022-01-06","APOAPSIS":"540.535"},{"RA_OF_ASC_NODE":"82.2330","FILE":"3851350","MEAN_MOTION":"15.08870331","ARG_OF_PERICENTER":"95.4172","RCS_SIZE":"LARGE","APOAPSIS":"540.592","LAUNCH_DATE":"2022-01-06","OBJECT_NAME":"STARLINK-3295","EPOCH":"2023-03-04T13:42:14.793984","SITE":"AFETR","ECCENTRICITY":"0.00013580","COUNTRY_CODE":"US","GP_ID":"227508880","CLASSIFICATION_TYPE":"U","REV_AT_EPOCH":"6402","TLE_LINE2":"2 50840  53.2160  82.2330 0001358  95.4172 264.6975 15.08870331 64026","INCLINATION":"53.2160","MEAN_ELEMENT_THEORY":"SGP4","TIME_SYSTEM":"UTC","OBJECT_TYPE":"PAYLOAD","REF_FRAME":"TEME","CENTER_NAME":"EARTH","SEMIMAJOR_AXIS":"6917.788","ELEMENT_SET_NO":"999","BSTAR":"0.00083035000000","OBJECT_ID":"2022-001AP","MEAN_MOTION_DDOT":"0.0000000000000","PERIAPSIS":"538.713","TLE_LINE1":"1 50840U 22001AP  23063.57100456  .00012963  00000-0  83035-3 0  9997","NORAD_CAT_ID":"50840","MEAN_MOTION_DOT":"0.00012963","MEAN_ANOMALY":"264.6975","PERIOD":"95.436","DECAY_DATE":null,"EPHEMERIS_TYPE":"0"},{"DECAY_DATE":null,"EPHEMERIS_TYPE":"0","PERIOD":"95.435","MEAN_ANOMALY":"269.3734","MEAN_MOTION_DOT":"0.00029649","NORAD_CAT_ID":"50841","PERIAPSIS":"538.793","TLE_LINE1":"1 50841U 22001AQ  23063.51580787  .00029649  00000-0  18715-2 0  9992","MEAN_MOTION_DDOT":"0.0000000000000","OBJECT_ID":"2022-001AQ","BSTAR":"0.00187150000000","ELEMENT_SET_NO":"999","CENTER_NAME":"EARTH","SEMIMAJOR_AXIS":"6917.781","REF_FRAME":"TEME","OBJECT_TYPE":"PAYLOAD","TIME_SYSTEM":"UTC","MEAN_ELEMENT_THEORY":"SGP4","INCLINATION":"53.2144","CLASSIFICATION_TYPE":"U","REV_AT_EPOCH":"6402","TLE_LINE2":"2 50841  53.2144  82.4819 0001233  90.7399 269.3734 15.08872667 64023","COUNTRY_CODE":"US","GP_ID":"227476861","EPOCH":"2023-03-04T12:22:45.799968","ECCENTRICITY":"0.00012330","SITE":"AFETR","OBJECT_NAME":"STARLINK-3300","LAUNCH_DATE":"2022-01-06","APOAPSIS":"540.499","ARG_OF_PERICENTER":"90.7399","RCS_SIZE":"LARGE","FILE":"3851072","MEAN_MOTION":"15.08872667","RA_OF_ASC_NODE":"82.4819"},{"SEMIMAJOR_AXIS":"6917.807","CENTER_NAME":"EARTH","REF_FRAME":"TEME","OBJECT_TYPE":"PAYLOAD","TIME_SYSTEM":"UTC","MEAN_MOTION_DDOT":"0.0000000000000","OBJECT_ID":"2022-001AR","BSTAR":"0.00181290000000","ELEMENT_SET_NO":"999","MEAN_MOTION_DOT":"0.00028701","NORAD_CAT_ID":"50842","PERIAPSIS":"538.670","TLE_LINE1":"1 50842U 22001AR  23063.56732971  .00028701  00000-0  18129-2 0  9999","DECAY_DATE":null,"EPHEMERIS_TYPE":"0","PERIOD":"95.436","MEAN_ANOMALY":"276.4956","RCS_SIZE":"LARGE","ARG_OF_PERICENTER":"83.6201","MEAN_MOTION":"15.08863988","FILE":"3851350","RA_OF_ASC_NODE":"82.2502","LAUNCH_DATE":"2022-01-06","APOAPSIS":"540.674","GP_ID":"227510368","COUNTRY_CODE":"US","SITE":"AFETR","ECCENTRICITY":"0.00014490","EPOCH":"2023-03-04T13:36:57.286944","OBJECT_NAME":"STARLINK-3302","MEAN_ELEMENT_THEORY":"SGP4","INCLINATION":"53.2149","TLE_LINE2":"2 50842  53.2149  82.2502 0001449  83.6201 276.4956 15.08863988 64029","REV_AT_EPOCH":"6402","CLASSIFICATION_TYPE":"U"},{"APOAPSIS":"540.815","LAUNCH_DATE":"2022-01-06","RA_OF_ASC_NODE":"82.4447","FILE":"3851072","MEAN_MOTION":"15.08869490","RCS_SIZE":"LARGE","ARG_OF_PERICENTER":"120.2520","REV_AT_EPOCH":"6402","TLE_LINE2":"2 50843  53.2151  82.4447 0001677 120.2520 239.8638 15.08869490 64022","CLASSIFICATION_TYPE":"U","INCLINATION":"53.2151","MEAN_ELEMENT_THEORY":"SGP4","OBJECT_NAME":"STARLINK-3325","SITE":"AFETR","ECCENTRICITY":"0.00016770","EPOCH":"2023-03-04T12:33:21.494016","GP_ID":"227475361","COUNTRY_CODE":"US","ELEMENT_SET_NO":"999","BSTAR":"0.00063030000000","OBJECT_ID":"2022-001AS","MEAN_MOTION_DDOT":"0.0000000000000","TIME_SYSTEM":"UTC","OBJECT_TYPE":"PAYLOAD","REF_FRAME":"TEME","SEMIMAJOR_AXIS":"6917.790","CENTER_NAME":"EARTH","MEAN_ANOMALY":"239.8638","PERIOD":"95.436","DECAY_DATE":null,"EPHEMERIS_TYPE":"0","PERIAPSIS":"538.495","TLE_LINE1":"1 50843U 22001AS  23063.52316544  .00009765  00000-0  63030-3 0  9991","NORAD_CAT_ID":"50843","MEAN_MOTION_DOT":"0.00009765"}];
